SENTINEL-6              
1 46984U 20086A   23191.47828557 -.00000045  00000+0  70103-4 0  9993
2 46984  66.0384 203.0798 0008107 269.3032  90.7054 12.80930320123065
